{
  "norad_id": 61677,
  "name": "STARLINK-32323",
  "history": [
    {
      "epoch": "2026-03-28T18:47:05.195328Z",
      "apogee_km": 476.08355937502256,
      "perigee_km": 474.33047397555674,
      "latitude_deg": 1.2637710849386596e-05,
      "longitude_deg": -105.91953702293502,
      "height_km": 476.03645907241594,
      "semi_major_axis_km": 6853.344016675289,
      "eccentricity": 0.0001279,
      "inclination_deg": 53.1623,
      "raan_deg": 2.0503,
      "arg_perigee_deg": 85.4934,
      "mean_anomaly_deg": 274.6213,
      "mean_motion_rev_day": 15.30202697
    },
    {
      "epoch": "2026-03-29T01:03:19.344960Z",
      "apogee_km": 476.2295978619313,
      "perigee_km": 474.2955684995577,
      "latitude_deg": 1.4576376149411842e-05,
      "longitude_deg": 158.55508328541396,
      "height_km": 476.33620596339864,
      "semi_major_axis_km": 6853.399583180744,
      "eccentricity": 0.0001411,
      "inclination_deg": 53.1638,
      "raan_deg": 0.8414,
      "arg_perigee_deg": 100.4451,
      "mean_anomaly_deg": 259.6709,
      "mean_motion_rev_day": 15.30184087
    },
    {
      "epoch": "2026-03-30T03:42:13.350816Z",
      "apogee_km": 476.1384789393178,
      "perigee_km": 474.36893345897715,
      "latitude_deg": 4.138941134801975e-05,
      "longitude_deg": 112.570971296782,
      "height_km": 475.76282616036605,
      "semi_major_axis_km": 6853.390706199147,
      "eccentricity": 0.0001291,
      "inclination_deg": 53.1621,
      "raan_deg": 355.6767,
      "arg_perigee_deg": 63.8941,
      "mean_anomaly_deg": 296.2193,
      "mean_motion_rev_day": 15.3018706
    },
    {
      "epoch": "2026-03-30T20:56:47.743584Z",
      "apogee_km": 475.94341407852517,
      "perigee_km": 474.5146243308409,
      "latitude_deg": 2.4757027389538083e-05,
      "longitude_deg": -150.11588366497114,
      "height_km": 475.86406294654637,
      "semi_major_axis_km": 6853.366019204683,
      "eccentricity": 0.00010424,
      "inclination_deg": 53.1617,
      "raan_deg": 352.3413,
      "arg_perigee_deg": 68.3453,
      "mean_anomaly_deg": 291.7659,
      "mean_motion_rev_day": 15.30195328
    },
    {
      "epoch": "2026-03-31T03:13:00.460704Z",
      "apogee_km": 476.0763363660353,
      "perigee_km": 474.38972200185344,
      "latitude_deg": -1.2516599901172927e-05,
      "longitude_deg": 114.35939297066977,
      "height_km": 475.81201732397733,
      "semi_major_axis_km": 6853.370029183944,
      "eccentricity": 0.00012305,
      "inclination_deg": 53.1621,
      "raan_deg": 351.1271,
      "arg_perigee_deg": 67.7368,
      "mean_anomaly_deg": 292.3763,
      "mean_motion_rev_day": 15.30193985
    },
    {
      "epoch": "2026-04-01T02:43:49.020384Z",
      "apogee_km": 476.15403372731816,
      "perigee_km": 474.31294427915327,
      "latitude_deg": 5.181229896707961e-05,
      "longitude_deg": 116.13824558021314,
      "height_km": 476.1902484320882,
      "semi_major_axis_km": 6853.370489003236,
      "eccentricity": 0.00013432,
      "inclination_deg": 53.1613,
      "raan_deg": 346.5739,
      "arg_perigee_deg": 93.6531,
      "mean_anomaly_deg": 266.4624,
      "mean_motion_rev_day": 15.30193831
    },
    {
      "epoch": "2026-04-02T21:03:14.512320Z",
      "apogee_km": 476.16929033164706,
      "perigee_km": 474.23253703724095,
      "latitude_deg": -8.975438028375163e-06,
      "longitude_deg": -168.6462889589964,
      "height_km": 476.30192724398904,
      "semi_major_axis_km": 6853.337913684444,
      "eccentricity": 0.0001413,
      "inclination_deg": 53.1611,
      "raan_deg": 338.3838,
      "arg_perigee_deg": 102.0991,
      "mean_anomaly_deg": 258.0168,
      "mean_motion_rev_day": 15.30204741
    },
    {
      "epoch": "2026-04-02T22:37:17.836320Z",
      "apogee_km": 476.1306566473977,
      "perigee_km": 474.2969741032348,
      "latitude_deg": 1.334703599339008e-05,
      "longitude_deg": 167.47289908341594,
      "height_km": 476.32653908917183,
      "semi_major_axis_km": 6853.3508153753155,
      "eccentricity": 0.00013378,
      "inclination_deg": 53.1611,
      "raan_deg": 338.0812,
      "arg_perigee_deg": 103.5351,
      "mean_anomaly_deg": 256.5799,
      "mean_motion_rev_day": 15.3020042
    },
    {
      "epoch": "2026-04-03T20:34:03.396864Z",
      "apogee_km": 476.1501238036826,
      "perigee_km": 474.37372280276304,
      "latitude_deg": -5.1943320797909186e-05,
      "longitude_deg": -166.86487492678987,
      "height_km": 476.3557378750657,
      "semi_major_axis_km": 6853.398923303223,
      "eccentricity": 0.0001296,
      "inclination_deg": 53.1612,
      "raan_deg": 333.8346,
      "arg_perigee_deg": 102.7223,
      "mean_anomaly_deg": 257.3922,
      "mean_motion_rev_day": 15.30184308
    },
    {
      "epoch": "2026-04-04T15:22:40.536480Z",
      "apogee_km": 475.8952366071844,
      "perigee_km": 474.4670051107969,
      "latitude_deg": 2.501359565223739e-05,
      "longitude_deg": -93.43367886501585,
      "height_km": 476.14459582611977,
      "semi_major_axis_km": 6853.31812085899,
      "eccentricity": 0.0001042,
      "inclination_deg": 53.1627,
      "raan_deg": 330.193,
      "arg_perigee_deg": 95.2059,
      "mean_anomaly_deg": 264.9061,
      "mean_motion_rev_day": 15.3021137
    },
    {
      "epoch": "2026-04-05T14:53:30.464736Z",
      "apogee_km": 475.8778760289997,
      "perigee_km": 474.686751752246,
      "latitude_deg": -1.8084525976891888e-05,
      "longitude_deg": -91.65642710900356,
      "height_km": 476.1559014021191,
      "semi_major_axis_km": 6853.419313890623,
      "eccentricity": 8.69e-05,
      "inclination_deg": 53.1623,
      "raan_deg": 325.644,
      "arg_perigee_deg": 87.5683,
      "mean_anomaly_deg": 272.5417,
      "mean_motion_rev_day": 15.30177479
    }
  ]
}